Inverse Dynamics Generalized Forces
version=1
nRows=2
nColumns=21
inDegrees=no
endheader
time	sternoclavicular_r2_moment	sternoclavicular_r3_moment	unrotscap_r3_moment	unrotscap_r2_moment	acromioclavicular_r2_moment	acromioclavicular_r3_moment	acromioclavicular_r1_moment	unrothum_r1_moment	unrothum_r3_moment	unrothum_r2_moment	elv_angle_moment	shoulder_elv_moment	shoulder1_r2_moment	shoulder_rot_moment	elbow_flexion_moment	pro_sup_moment	deviation_force	flexion_force	wrist_hand_r1_moment	wrist_hand_r3_moment
      0.00000000	     -0.03475668	      9.79639679	      3.58895473	     -0.15136225	     -0.82592353	      3.52369516	     -1.85455083	     -1.41385672	      3.56689409	     -0.90144107	      0.07531697	      2.26447693	     -1.57607090	     -1.57607288	      2.93476738	     -0.12647239	     -0.04954028	     -0.04608855	     -0.15021726	     -0.11955347
      0.01000000	     -0.03475668	      9.79639679	      3.58895473	     -0.15136225	     -0.82592353	      3.52369516	     -1.85455083	     -1.41385672	      3.56689409	     -0.90144107	      0.07531697	      2.26447693	     -1.57607090	     -1.57607288	      2.93476738	     -0.12647239	     -0.04954028	     -0.04608855	     -0.15021726	     -0.11955347
