Inverse Dynamics Generalized Forces
version=1
nRows=2
nColumns=21
inDegrees=no
endheader
time	sternoclavicular_r2_moment	sternoclavicular_r3_moment	unrotscap_r3_moment	unrotscap_r2_moment	acromioclavicular_r2_moment	acromioclavicular_r3_moment	acromioclavicular_r1_moment	unrothum_r1_moment	unrothum_r3_moment	unrothum_r2_moment	elv_angle_moment	shoulder_elv_moment	shoulder1_r2_moment	shoulder_rot_moment	elbow_flexion_moment	pro_sup_moment	deviation_force	flexion_force	wrist_hand_r1_moment	wrist_hand_r3_moment
      0.00000000	     -0.06366919	      9.82233737	      3.63386030	     -0.18644548	     -0.86270891	      3.53356999	     -1.90602361	     -1.46208959	      3.57230622	     -0.93767457	      0.03640392	      2.30331509	     -1.61239455	     -1.61239653	      2.88508621	     -0.12817255	     -0.04624354	     -0.04713000	     -0.15021726	     -0.11955347
      0.01000000	     -0.06366919	      9.82233737	      3.63386030	     -0.18644548	     -0.86270891	      3.53356999	     -1.90602361	     -1.46208959	      3.57230622	     -0.93767457	      0.03640392	      2.30331509	     -1.61239455	     -1.61239653	      2.88508621	     -0.12817255	     -0.04624354	     -0.04713000	     -0.15021726	     -0.11955347
