Inverse Dynamics Generalized Forces
version=1
nRows=2
nColumns=21
inDegrees=no
endheader
time	sternoclavicular_r2_moment	sternoclavicular_r3_moment	unrotscap_r3_moment	unrotscap_r2_moment	acromioclavicular_r2_moment	acromioclavicular_r3_moment	acromioclavicular_r1_moment	unrothum_r1_moment	unrothum_r3_moment	unrothum_r2_moment	elv_angle_moment	shoulder_elv_moment	shoulder1_r2_moment	shoulder_rot_moment	elbow_flexion_moment	pro_sup_moment	deviation_force	flexion_force	wrist_hand_r1_moment	wrist_hand_r3_moment
      0.00000000	     -0.14432101	      9.86807938	      3.66727775	     -0.22725180	     -0.89464520	      3.49320316	     -1.98106258	     -1.52776902	      3.53795529	     -0.96861707	     -0.01314881	      2.34782476	     -1.63560222	     -1.63560420	      2.90243082	     -0.12956931	     -0.04629744	     -0.04756831	     -0.15021726	     -0.11955347
      0.01000000	     -0.14432101	      9.86807938	      3.66727775	     -0.22725180	     -0.89464520	      3.49320316	     -1.98106258	     -1.52776902	      3.53795529	     -0.96861707	     -0.01314881	      2.34782476	     -1.63560222	     -1.63560420	      2.90243082	     -0.12956931	     -0.04629744	     -0.04756831	     -0.15021726	     -0.11955347
