Inverse Dynamics Generalized Forces
version=1
nRows=2
nColumns=21
inDegrees=no
endheader
time	sternoclavicular_r2_moment	sternoclavicular_r3_moment	unrotscap_r3_moment	unrotscap_r2_moment	acromioclavicular_r2_moment	acromioclavicular_r3_moment	acromioclavicular_r1_moment	unrothum_r1_moment	unrothum_r3_moment	unrothum_r2_moment	elv_angle_moment	shoulder_elv_moment	shoulder1_r2_moment	shoulder_rot_moment	elbow_flexion_moment	pro_sup_moment	deviation_force	flexion_force	wrist_hand_r1_moment	wrist_hand_r3_moment
      0.00000000	     -0.11834428	      9.86137151	      3.66017930	     -0.21464530	     -0.88663905	      3.51456342	     -1.95527978	     -1.50478539	      3.55701280	     -0.96089215	      0.00361200	      2.33366209	     -1.63190930	     -1.63191128	      2.90453880	     -0.12947351	     -0.04635346	     -0.04749880	     -0.15021726	     -0.11955347
      0.01000000	     -0.11834428	      9.86137151	      3.66017930	     -0.21464530	     -0.88663905	      3.51456342	     -1.95527978	     -1.50478539	      3.55701280	     -0.96089215	      0.00361200	      2.33366209	     -1.63190930	     -1.63191128	      2.90453880	     -0.12947351	     -0.04635346	     -0.04749880	     -0.15021726	     -0.11955347
