Inverse Dynamics Generalized Forces
version=1
nRows=2
nColumns=21
inDegrees=no
endheader
time	sternoclavicular_r2_moment	sternoclavicular_r3_moment	unrotscap_r3_moment	unrotscap_r2_moment	acromioclavicular_r2_moment	acromioclavicular_r3_moment	acromioclavicular_r1_moment	unrothum_r1_moment	unrothum_r3_moment	unrothum_r2_moment	elv_angle_moment	shoulder_elv_moment	shoulder1_r2_moment	shoulder_rot_moment	elbow_flexion_moment	pro_sup_moment	deviation_force	flexion_force	wrist_hand_r1_moment	wrist_hand_r3_moment
      0.00000000	      0.01153938	      9.82783214	      3.62468708	     -0.15161279	     -0.84660832	      3.62136473	     -1.82636577	     -1.38986723	      3.65230033	     -0.92226751	      0.08741604	      2.26284877	     -1.61344471	     -1.61344669	      2.91507866	     -0.12899452	     -0.04663360	     -0.04715127	     -0.15021726	     -0.11955347
      0.01000000	      0.01153938	      9.82783214	      3.62468708	     -0.15161279	     -0.84660832	      3.62136473	     -1.82636577	     -1.38986723	      3.65230033	     -0.92226751	      0.08741604	      2.26284877	     -1.61344471	     -1.61344669	      2.91507866	     -0.12899452	     -0.04663360	     -0.04715127	     -0.15021726	     -0.11955347
