Inverse Dynamics Generalized Forces
version=1
nRows=2
nColumns=21
inDegrees=no
endheader
time	sternoclavicular_r2_moment	sternoclavicular_r3_moment	unrotscap_r3_moment	unrotscap_r2_moment	acromioclavicular_r2_moment	acromioclavicular_r3_moment	acromioclavicular_r1_moment	unrothum_r1_moment	unrothum_r3_moment	unrothum_r2_moment	elv_angle_moment	shoulder_elv_moment	shoulder1_r2_moment	shoulder_rot_moment	elbow_flexion_moment	pro_sup_moment	deviation_force	flexion_force	wrist_hand_r1_moment	wrist_hand_r3_moment
      0.00000000	     -0.12263855	      9.83142823	      3.62754891	     -0.22832425	     -0.92975839	      3.64032546	     -1.81004841	     -1.35760146	      3.69258864	     -1.00854739	      0.02780137	      2.33895811	     -1.61447616	     -1.61447814	      2.89553205	     -0.12878502	     -0.04743409	     -0.04667976	     -0.14872401	     -0.11811352
      0.01000000	     -0.12263855	      9.83142823	      3.62754891	     -0.22832425	     -0.92975839	      3.64032546	     -1.81004841	     -1.35760146	      3.69258864	     -1.00854739	      0.02780137	      2.33895811	     -1.61447616	     -1.61447814	      2.89553205	     -0.12878502	     -0.04743409	     -0.04667976	     -0.14872401	     -0.11811352
