Inverse Dynamics Generalized Forces
version=1
nRows=2
nColumns=21
inDegrees=no
endheader
time	sternoclavicular_r2_moment	sternoclavicular_r3_moment	unrotscap_r3_moment	unrotscap_r2_moment	acromioclavicular_r2_moment	acromioclavicular_r3_moment	acromioclavicular_r1_moment	unrothum_r1_moment	unrothum_r3_moment	unrothum_r2_moment	elv_angle_moment	shoulder_elv_moment	shoulder1_r2_moment	shoulder_rot_moment	elbow_flexion_moment	pro_sup_moment	deviation_force	flexion_force	wrist_hand_r1_moment	wrist_hand_r3_moment
      0.00000000	     -0.07183406	      9.89919254	      3.67022663	     -0.19540595	     -0.88646245	      3.60471187	     -1.89909531	     -1.45227520	      3.64077099	     -0.96097773	      0.03859302	      2.30938010	     -1.64878129	     -1.64878327	      2.95609181	     -0.13150065	     -0.04690948	     -0.04781937	     -0.15021726	     -0.11955347
      0.01000000	     -0.07183406	      9.89919254	      3.67022663	     -0.19540595	     -0.88646245	      3.60471187	     -1.89909531	     -1.45227520	      3.64077099	     -0.96097773	      0.03859302	      2.30938010	     -1.64878129	     -1.64878327	      2.95609181	     -0.13150065	     -0.04690948	     -0.04781937	     -0.15021726	     -0.11955347
