Inverse Dynamics Generalized Forces
version=1
nRows=2
nColumns=21
inDegrees=no
endheader
time	sternoclavicular_r2_moment	sternoclavicular_r3_moment	unrotscap_r3_moment	unrotscap_r2_moment	acromioclavicular_r2_moment	acromioclavicular_r3_moment	acromioclavicular_r1_moment	unrothum_r1_moment	unrothum_r3_moment	unrothum_r2_moment	elv_angle_moment	shoulder_elv_moment	shoulder1_r2_moment	shoulder_rot_moment	elbow_flexion_moment	pro_sup_moment	deviation_force	flexion_force	wrist_hand_r1_moment	wrist_hand_r3_moment
      0.00000000	     -0.06911244	      9.87357415	      3.65810452	     -0.19241912	     -0.87854460	      3.58099791	     -1.90140474	     -1.45554666	      3.61794940	     -0.95321001	      0.03786332	      2.30735843	     -1.63665238	     -1.63665436	      2.93242328	     -0.13039128	     -0.04668750	     -0.04758958	     -0.15021726	     -0.11955347
      0.01000000	     -0.06911244	      9.87357415	      3.65810452	     -0.19241912	     -0.87854460	      3.58099791	     -1.90140474	     -1.45554666	      3.61794940	     -0.95321001	      0.03786332	      2.30735843	     -1.63665238	     -1.63665436	      2.93242328	     -0.13039128	     -0.04668750	     -0.04758958	     -0.15021726	     -0.11955347
