Inverse Dynamics Generalized Forces
version=1
nRows=2
nColumns=21
inDegrees=no
endheader
time	sternoclavicular_r2_moment	sternoclavicular_r3_moment	unrotscap_r3_moment	unrotscap_r2_moment	acromioclavicular_r2_moment	acromioclavicular_r3_moment	acromioclavicular_r1_moment	unrothum_r1_moment	unrothum_r3_moment	unrothum_r2_moment	elv_angle_moment	shoulder_elv_moment	shoulder1_r2_moment	shoulder_rot_moment	elbow_flexion_moment	pro_sup_moment	deviation_force	flexion_force	wrist_hand_r1_moment	wrist_hand_r3_moment
      0.00000000	     -0.08220788	      9.87373525	      3.67449625	     -0.20846733	     -0.89297837	      3.57407834	     -1.92829585	     -1.48129883	      3.60924467	     -0.96744291	      0.01804194	      2.32576668	     -1.64874975	     -1.64875173	      2.89574843	     -0.13068668	     -0.04492813	     -0.04799541	     -0.15021726	     -0.11955347
      0.01000000	     -0.08220788	      9.87373525	      3.67449625	     -0.20846733	     -0.89297837	      3.57407834	     -1.92829585	     -1.48129883	      3.60924467	     -0.96744291	      0.01804194	      2.32576668	     -1.64874975	     -1.64875173	      2.89574843	     -0.13068668	     -0.04492813	     -0.04799541	     -0.15021726	     -0.11955347
