Inverse Dynamics Generalized Forces
version=1
nRows=2
nColumns=21
inDegrees=no
endheader
time	sternoclavicular_r2_moment	sternoclavicular_r3_moment	unrotscap_r3_moment	unrotscap_r2_moment	acromioclavicular_r2_moment	acromioclavicular_r3_moment	acromioclavicular_r1_moment	unrothum_r1_moment	unrothum_r3_moment	unrothum_r2_moment	elv_angle_moment	shoulder_elv_moment	shoulder1_r2_moment	shoulder_rot_moment	elbow_flexion_moment	pro_sup_moment	deviation_force	flexion_force	wrist_hand_r1_moment	wrist_hand_r3_moment
      0.00000000	     -0.08953382	      9.77431072	      3.59705243	     -0.20809189	     -0.90307138	      3.60913527	     -1.79387198	     -1.34616818	      3.66083017	     -0.98241088	      0.04325441	      2.32333607	     -1.58332910	     -1.58333108	      2.84424301	     -0.12582349	     -0.04620621	     -0.04500061	     -0.14395529	     -0.11426050
      0.01000000	     -0.08953382	      9.77431072	      3.59705243	     -0.20809189	     -0.90307138	      3.60913527	     -1.79387198	     -1.34616818	      3.66083017	     -0.98241088	      0.04325441	      2.32333607	     -1.58332910	     -1.58333108	      2.84424301	     -0.12582349	     -0.04620621	     -0.04500061	     -0.14395529	     -0.11426050
