Inverse Dynamics Generalized Forces
version=1
nRows=2
nColumns=21
inDegrees=no
endheader
time	sternoclavicular_r2_moment	sternoclavicular_r3_moment	unrotscap_r3_moment	unrotscap_r2_moment	acromioclavicular_r2_moment	acromioclavicular_r3_moment	acromioclavicular_r1_moment	unrothum_r1_moment	unrothum_r3_moment	unrothum_r2_moment	elv_angle_moment	shoulder_elv_moment	shoulder1_r2_moment	shoulder_rot_moment	elbow_flexion_moment	pro_sup_moment	deviation_force	flexion_force	wrist_hand_r1_moment	wrist_hand_r3_moment
      0.00000000	     -0.04041408	      9.84124789	      3.63888397	     -0.17682580	     -0.86262061	      3.57864421	     -1.87793137	     -1.43583449	      3.61418532	     -0.93771737	      0.05389442	      2.29117410	     -1.62083055	     -1.62083253	      2.91086272	     -0.12918612	     -0.04652154	     -0.04729028	     -0.15021726	     -0.11955347
      0.01000000	     -0.04041408	      9.84124789	      3.63888397	     -0.17682580	     -0.86262061	      3.57864421	     -1.87793137	     -1.43583449	      3.61418532	     -0.93771737	      0.05389442	      2.29117410	     -1.62083055	     -1.62083253	      2.91086272	     -0.12918612	     -0.04652154	     -0.04729028	     -0.15021726	     -0.11955347
