Inverse Dynamics Generalized Forces
version=1
nRows=2
nColumns=21
inDegrees=no
endheader
time	sternoclavicular_r2_moment	sternoclavicular_r3_moment	unrotscap_r3_moment	unrotscap_r2_moment	acromioclavicular_r2_moment	acromioclavicular_r3_moment	acromioclavicular_r1_moment	unrothum_r1_moment	unrothum_r3_moment	unrothum_r2_moment	elv_angle_moment	shoulder_elv_moment	shoulder1_r2_moment	shoulder_rot_moment	elbow_flexion_moment	pro_sup_moment	deviation_force	flexion_force	wrist_hand_r1_moment	wrist_hand_r3_moment
      0.00000000	     -0.03463025	      9.74255221	      3.53015866	     -0.14421949	     -0.84050045	      3.61317838	     -1.70240281	     -1.25904758	      3.67119515	     -0.92054084	      0.11668783	      2.25864845	     -1.52550617	     -1.52550815	      2.94344651	     -0.12637315	     -0.06481253	     -0.03869407	     -0.13990014	     -0.10732373
      0.01000000	     -0.03463025	      9.74255221	      3.53015866	     -0.14421949	     -0.84050045	      3.61317838	     -1.70240281	     -1.25904758	      3.67119515	     -0.92054084	      0.11668783	      2.25864845	     -1.52550617	     -1.52550815	      2.94344651	     -0.12637315	     -0.06481253	     -0.03869407	     -0.13990014	     -0.10732373
