Inverse Dynamics Generalized Forces
version=1
nRows=2
nColumns=21
inDegrees=no
endheader
time	sternoclavicular_r2_moment	sternoclavicular_r3_moment	unrotscap_r3_moment	unrotscap_r2_moment	acromioclavicular_r2_moment	acromioclavicular_r3_moment	acromioclavicular_r1_moment	unrothum_r1_moment	unrothum_r3_moment	unrothum_r2_moment	elv_angle_moment	shoulder_elv_moment	shoulder1_r2_moment	shoulder_rot_moment	elbow_flexion_moment	pro_sup_moment	deviation_force	flexion_force	wrist_hand_r1_moment	wrist_hand_r3_moment
      0.00000000	     -0.06613326	      9.87669536	      3.67472201	     -0.18917474	     -0.87375831	      3.57649498	     -1.92513717	     -1.48024111	      3.61433885	     -0.94857385	      0.03679490	      2.33137080	     -1.63122893	     -1.63123091	      2.89557343	     -0.12932845	     -0.04606458	     -0.04739643	     -0.14979678	     -0.11927972
      0.01000000	     -0.06613326	      9.87669536	      3.67472201	     -0.18917474	     -0.87375831	      3.57649498	     -1.92513717	     -1.48024111	      3.61433885	     -0.94857385	      0.03679490	      2.33137080	     -1.63122893	     -1.63123091	      2.89557343	     -0.12932845	     -0.04606458	     -0.04739643	     -0.14979678	     -0.11927972
