Inverse Dynamics Generalized Forces
version=1
nRows=2
nColumns=21
inDegrees=no
endheader
time	sternoclavicular_r2_moment	sternoclavicular_r3_moment	unrotscap_r3_moment	unrotscap_r2_moment	acromioclavicular_r2_moment	acromioclavicular_r3_moment	acromioclavicular_r1_moment	unrothum_r1_moment	unrothum_r3_moment	unrothum_r2_moment	elv_angle_moment	shoulder_elv_moment	shoulder1_r2_moment	shoulder_rot_moment	elbow_flexion_moment	pro_sup_moment	deviation_force	flexion_force	wrist_hand_r1_moment	wrist_hand_r3_moment
      0.00000000	     -0.15813809	      9.90645215	      3.71032405	     -0.28669124	     -1.00290777	      3.71215449	     -1.86386787	     -1.40792459	      3.75405736	     -1.08098193	     -0.02646165	      2.39085128	     -1.69586018	     -1.69586217	      2.85445655	     -0.13123402	     -0.03095624	     -0.05457593	     -0.15846758	     -0.12949734
      0.01000000	     -0.15813809	      9.90645215	      3.71032405	     -0.28669124	     -1.00290777	      3.71215449	     -1.86386787	     -1.40792459	      3.75405736	     -1.08098193	     -0.02646165	      2.39085128	     -1.69586018	     -1.69586217	      2.85445655	     -0.13123402	     -0.03095624	     -0.05457593	     -0.15846758	     -0.12949734
