Inverse Dynamics Generalized Forces
version=1
nRows=2
nColumns=21
inDegrees=no
endheader
time	sternoclavicular_r2_moment	sternoclavicular_r3_moment	unrotscap_r3_moment	unrotscap_r2_moment	acromioclavicular_r2_moment	acromioclavicular_r3_moment	acromioclavicular_r1_moment	unrothum_r1_moment	unrothum_r3_moment	unrothum_r2_moment	elv_angle_moment	shoulder_elv_moment	shoulder1_r2_moment	shoulder_rot_moment	elbow_flexion_moment	pro_sup_moment	deviation_force	flexion_force	wrist_hand_r1_moment	wrist_hand_r3_moment
      0.00000000	     -0.05822594	      9.77110058	      3.60961609	     -0.18047183	     -0.84687322	      3.48614207	     -1.91064247	     -1.46863252	      3.52666304	     -0.92213913	      0.03494452	      2.29927176	     -1.58813673	     -1.58813871	      2.83774915	     -0.12595381	     -0.04579958	     -0.04667041	     -0.15021726	     -0.11955347
      0.01000000	     -0.05822594	      9.77110058	      3.60961609	     -0.18047183	     -0.84687322	      3.48614207	     -1.91064247	     -1.46863252	      3.52666304	     -0.92213913	      0.03494452	      2.29927176	     -1.58813673	     -1.58813871	      2.83774915	     -0.12595381	     -0.04579958	     -0.04667041	     -0.15021726	     -0.11955347
