Inverse Dynamics Generalized Forces
version=1
nRows=2
nColumns=21
inDegrees=no
endheader
time	sternoclavicular_r2_moment	sternoclavicular_r3_moment	unrotscap_r3_moment	unrotscap_r2_moment	acromioclavicular_r2_moment	acromioclavicular_r3_moment	acromioclavicular_r1_moment	unrothum_r1_moment	unrothum_r3_moment	unrothum_r2_moment	elv_angle_moment	shoulder_elv_moment	shoulder1_r2_moment	shoulder_rot_moment	elbow_flexion_moment	pro_sup_moment	deviation_force	flexion_force	wrist_hand_r1_moment	wrist_hand_r3_moment
      0.00000000	     -0.04387541	      9.81065007	      3.60562623	     -0.18971759	     -0.90559555	      3.70734839	     -1.72930921	     -1.28525534	      3.75270150	     -0.98518938	      0.07973653	      2.29633338	     -1.60309722	     -1.60309920	      2.90579049	     -0.12884071	     -0.04878496	     -0.04654549	     -0.15010357	     -0.11900456
      0.01000000	     -0.04387541	      9.81065007	      3.60562623	     -0.18971759	     -0.90559555	      3.70734839	     -1.72930921	     -1.28525534	      3.75270150	     -0.98518938	      0.07973653	      2.29633338	     -1.60309722	     -1.60309920	      2.90579049	     -0.12884071	     -0.04878496	     -0.04654549	     -0.15010357	     -0.11900456
