Inverse Dynamics Generalized Forces
version=1
nRows=2
nColumns=21
inDegrees=no
endheader
time	sternoclavicular_r2_moment	sternoclavicular_r3_moment	unrotscap_r3_moment	unrotscap_r2_moment	acromioclavicular_r2_moment	acromioclavicular_r3_moment	acromioclavicular_r1_moment	unrothum_r1_moment	unrothum_r3_moment	unrothum_r2_moment	elv_angle_moment	shoulder_elv_moment	shoulder1_r2_moment	shoulder_rot_moment	elbow_flexion_moment	pro_sup_moment	deviation_force	flexion_force	wrist_hand_r1_moment	wrist_hand_r3_moment
      0.00000000	     -0.09802495	      9.89951473	      3.70301009	     -0.22750235	     -0.91532998	      3.59087273	     -1.95287752	     -1.50377953	      3.62336153	     -0.98944352	     -0.00104974	      2.34619659	     -1.67297603	     -1.67297801	      2.88274211	     -0.13209144	     -0.04339075	     -0.04863102	     -0.15021726	     -0.11955347
      0.01000000	     -0.09802495	      9.89951473	      3.70301009	     -0.22750235	     -0.91532998	      3.59087273	     -1.95287752	     -1.50377953	      3.62336153	     -0.98944352	     -0.00104974	      2.34619659	     -1.67297603	     -1.67297801	      2.88274211	     -0.13209144	     -0.04339075	     -0.04863102	     -0.15021726	     -0.11955347
