Inverse Dynamics Generalized Forces
version=1
nRows=2
nColumns=21
inDegrees=no
endheader
time	sternoclavicular_r2_moment	sternoclavicular_r3_moment	unrotscap_r3_moment	unrotscap_r2_moment	acromioclavicular_r2_moment	acromioclavicular_r3_moment	acromioclavicular_r1_moment	unrothum_r1_moment	unrothum_r3_moment	unrothum_r2_moment	elv_angle_moment	shoulder_elv_moment	shoulder1_r2_moment	shoulder_rot_moment	elbow_flexion_moment	pro_sup_moment	deviation_force	flexion_force	wrist_hand_r1_moment	wrist_hand_r3_moment
      0.00000000	     -0.05057375	      9.82217627	      3.61746857	     -0.17039727	     -0.84827515	      3.54048955	     -1.87913250	     -1.43633742	      3.58101095	     -0.92344168	      0.05622530	      2.28490685	     -1.60029718	     -1.60029916	      2.92176106	     -0.12787715	     -0.04800290	     -0.04672417	     -0.15021726	     -0.11955347
      0.01000000	     -0.05057375	      9.82217627	      3.61746857	     -0.17039727	     -0.84827515	      3.54048955	     -1.87913250	     -1.43633742	      3.58101095	     -0.92344168	      0.05622530	      2.28490685	     -1.60029718	     -1.60029916	      2.92176106	     -0.12787715	     -0.04800290	     -0.04672417	     -0.15021726	     -0.11955347
