Inverse Dynamics Generalized Forces
version=1
nRows=2
nColumns=21
inDegrees=no
endheader
time	sternoclavicular_r2_moment	sternoclavicular_r3_moment	unrotscap_r3_moment	unrotscap_r2_moment	acromioclavicular_r2_moment	acromioclavicular_r3_moment	acromioclavicular_r1_moment	unrothum_r1_moment	unrothum_r3_moment	unrothum_r2_moment	elv_angle_moment	shoulder_elv_moment	shoulder1_r2_moment	shoulder_rot_moment	elbow_flexion_moment	pro_sup_moment	deviation_force	flexion_force	wrist_hand_r1_moment	wrist_hand_r3_moment
      0.00000000	     -0.10665970	      9.89978937	      3.65502473	     -0.22650056	     -0.94965321	      3.74296318	     -1.76703039	     -1.31446293	      3.79032040	     -1.02828715	      0.04790111	      2.32687056	     -1.65171430	     -1.65171628	      2.98101431	     -0.13327372	     -0.05040165	     -0.04908658	     -0.15702672	     -0.12463558
      0.01000000	     -0.10665970	      9.89978937	      3.65502473	     -0.22650056	     -0.94965321	      3.74296318	     -1.76703039	     -1.31446293	      3.79032040	     -1.02828715	      0.04790111	      2.32687056	     -1.65171430	     -1.65171628	      2.98101431	     -0.13327372	     -0.05040165	     -0.04908658	     -0.15702672	     -0.12463558
